GLOBALSTAR M084 [+]     
1 38040U 11080A   24100.00745635 -.00000090  00000+0  79154-4 0  9991
2 38040  52.0005 290.2752 0000907 116.1658  49.4444 12.62273128567832
GLOBALSTAR M080 [+]     
1 38041U 11080B   24099.78944244 -.00000087  00000+0  95694-4 0  9994
2 38041  52.0057 292.3948 0001130 114.0041 259.3461 12.62271009567930
GLOBALSTAR M082 [+]     
1 38042U 11080C   24099.83211226 -.00000110  00000+0 -36301-4 0  9996
2 38042  52.0065 247.6639 0000380  54.0609  93.2003 12.62267893568810
GLOBALSTAR M092 [+]     
1 38043U 11080D   24099.93420354 -.00000080  00000+0  13413-3 0  9995
2 38043  52.0103 337.7072 0000600 102.9302 268.9772 12.62277633567113
GLOBALSTAR M090 [+]     
1 38044U 11080E   24099.67054157 -.00000120  00000+0 -88294-4 0  9997
2 38044  51.9875 242.5222 0000539  89.8199 284.0603 12.62267913568748
GLOBALSTAR M086 [+]     
1 38045U 11080F   24099.69688309 -.00000103  00000+0  33699-5 0  9992
2 38045  51.9888 242.9601 0001594  90.3890 282.7455 12.62269323568696
GLOBALSTAR M097 [+]     
1 39072U 13005A   24099.95814555 -.00000062  00000+0  23251-3 0  9990
2 39072  52.0030 156.2720 0000487  78.3804 281.7118 12.62262229515974
GLOBALSTAR M093 [+]     
1 39073U 13005B   24099.93154330 -.00000069  00000+0  19514-3 0  9991
2 39073  51.9794 150.3501 0000498  66.9555 293.1364 12.62262968515925
